0 COSMOS 1823 DEB
1 29360U 87020EB  13282.37312738  .00000084  00000-0  75720-3 0  7979
2 29360 073.7068 292.1979 0058181 029.2138 032.5939 12.38910191572055
0 COSMOS 1823 DEB
1 29360U 87020EB  13283.50580019  .00000078  00000-0  71766-3 0  7984
2 29360 073.7067 290.6945 0058213 027.5771 044.4107 12.38910535572196
0 COSMOS 1823 DEB
1 29360U 87020EB  13286.41196942  .00000086  00000-0  77770-3 0  8009
2 29360 073.7065 286.8367 0058269 023.4137 046.1469 12.38911836572556
0 COSMOS 1823 DEB
1 29360U 87020EB  13288.68292947  .00000084  00000-0  76035-3 0  8014
2 29360 073.7068 283.8220 0058369 020.1446 094.8234 12.38912336572839
0 COSMOS 1823 DEB
1 29360U 87020EB  13291.33554521  .00000120  00000-0  10295-2 0  8026
2 29360 073.7072 280.3007 0058698 016.3417 045.7113 12.38913131573161
0 COSMOS 1823 DEB
1 29360U 87020EB  13293.43721309  .00000165  00000-0  13734-2 0  8030
2 29360 073.7076 277.5114 0058923 013.3755 059.2811 12.38913542573425
0 COSMOS 1823 DEB
1 29360U 87020EB  13295.37427238  .00000180  00000-0  14867-2 0  8045
2 29360 073.7072 274.9384 0059038 010.7527 058.5791 12.38913880573667
